[
    {
        "Altitude(m)": 706733.8996934263,
        "Argument of Periapsis(deg)": 0.009112096949301655,
        "Eccentricity": 0.0,
        "Inclination(deg)": 45.0,
        "Latitude(deg)": 42.57810921510333,
        "Longitude(deg)": -156.663754412234,
        "Mean Anomaly(deg)": 107.40837331798463,
        "RAAN(deg)": 189.99139844683344,
        "Satellite Name": "Constellation 1 842",
        "Satellite Number": 842,
        "Semi-Major Axis(m)": 7083131.272910544,
        "Time(s)": 152
    },
    {
        "Altitude(m)": 706730.03424954,
        "Argument of Periapsis(deg)": 0.009172044955547059,
        "Eccentricity": 0.0,
        "Inclination(deg)": 45.0,
        "Latitude(deg)": 42.56061489697927,
        "Longitude(deg)": -156.58907752308946,
        "Mean Anomaly(deg)": 107.46907445823452,
        "RAAN(deg)": 189.9913418576679,
        "Satellite Name": "Constellation 1 842",
        "Satellite Number": 842,
        "Semi-Major Axis(m)": 7083131.272910544,
        "Time(s)": 153
    },
    {
        "Altitude(m)": 706726.1575913554,
        "Argument of Periapsis(deg)": 0.009231992961792466,
        "Eccentricity": 0.0,
        "Inclination(deg)": 45.0,
        "Latitude(deg)": 42.543066406577,
        "Longitude(deg)": -156.51444467759325,
        "Mean Anomaly(deg)": 107.52977559848446,
        "RAAN(deg)": 189.99128526850234,
        "Satellite Name": "Constellation 1 842",
        "Satellite Number": 842,
        "Semi-Major Axis(m)": 7083131.272910544,
        "Time(s)": 154
    },
    {
        "Altitude(m)": 706722.2697419579,
        "Argument of Periapsis(deg)": 0.009291940968037872,
        "Eccentricity": 0.0,
        "Inclination(deg)": 45.0,
        "Latitude(deg)": 42.52546380684032,
        "Longitude(deg)": -156.4398559598768,
        "Mean Anomaly(deg)": 107.59047673873435,
        "RAAN(deg)": 189.99122867933673,
        "Satellite Name": "Constellation 1 842",
        "Satellite Number": 842,
        "Semi-Major Axis(m)": 7083131.272910544,
        "Time(s)": 155
    },
    {
        "Altitude(m)": 706718.370724499,
        "Argument of Periapsis(deg)": 0.009351888974283276,
        "Eccentricity": 0.0,
        "Inclination(deg)": 45.0,
        "Latitude(deg)": 42.507807160816476,
        "Longitude(deg)": -156.36531162160517,
        "Mean Anomaly(deg)": 107.65117787898421,
        "RAAN(deg)": 189.99117209017118,
        "Satellite Name": "Constellation 1 842",
        "Satellite Number": 842,
        "Semi-Major Axis(m)": 7083131.272910544,
        "Time(s)": 156
    },
    {
        "Altitude(m)": 706714.460562209,
        "Argument of Periapsis(deg)": 0.00941183698052868,
        "Eccentricity": 0.0,
        "Inclination(deg)": 45.0,
        "Latitude(deg)": 42.49009653165418,
        "Longitude(deg)": -156.2908114095894,
        "Mean Anomaly(deg)": 107.71187901923416,
        "RAAN(deg)": 189.9911155010056,
        "Satellite Name": "Constellation 1 842",
        "Satellite Number": 842,
        "Semi-Major Axis(m)": 7083131.272910544,
        "Time(s)": 157
    },
    {
        "Altitude(m)": 706710.5392783777,
        "Argument of Periapsis(deg)": 0.009471784986774088,
        "Eccentricity": 0.0,
        "Inclination(deg)": 45.0,
        "Latitude(deg)": 42.4723319826046,
        "Longitude(deg)": -156.21635557436895,
        "Mean Anomaly(deg)": 107.77258015948404,
        "RAAN(deg)": 189.99105891184004,
        "Satellite Name": "Constellation 1 842",
        "Satellite Number": 842,
        "Semi-Major Axis(m)": 7083131.272910544,
        "Time(s)": 158
    },
    {
        "Altitude(m)": 706706.6068963619,
        "Argument of Periapsis(deg)": 0.009531732993019492,
        "Eccentricity": 0.0,
        "Inclination(deg)": 45.0,
        "Latitude(deg)": 42.45451357701914,
        "Longitude(deg)": -156.14194419782345,
        "Mean Anomaly(deg)": 107.83328129973391,
        "RAAN(deg)": 189.99100232267443,
        "Satellite Name": "Constellation 1 842",
        "Satellite Number": 842,
        "Semi-Major Axis(m)": 7083131.272910544,
        "Time(s)": 159
    },
    {
        "Altitude(m)": 706702.6634395993,
        "Argument of Periapsis(deg)": 0.009591680999264898,
        "Eccentricity": 0.0,
        "Inclination(deg)": 45.0,
        "Latitude(deg)": 42.436641378348874,
        "Longitude(deg)": -156.0675773612705,
        "Mean Anomaly(deg)": 107.89398243998384,
        "RAAN(deg)": 189.99094573350888,
        "Satellite Name": "Constellation 1 842",
        "Satellite Number": 842,
        "Semi-Major Axis(m)": 7083131.272910544,
        "Time(s)": 160
    },
    {
        "Altitude(m)": 706698.7089315858,
        "Argument of Periapsis(deg)": 0.009651629005510304,
        "Eccentricity": 0.0,
        "Inclination(deg)": 45.0,
        "Latitude(deg)": 42.41871545014374,
        "Longitude(deg)": -155.99325514546604,
        "Mean Anomaly(deg)": 107.95468358023373,
        "RAAN(deg)": 189.99088914434333,
        "Satellite Name": "Constellation 1 842",
        "Satellite Number": 842,
        "Semi-Major Axis(m)": 7083131.272910544,
        "Time(s)": 161
    },
    {
        "Altitude(m)": 706694.7433958906,
        "Argument of Periapsis(deg)": 0.00971157701175571,
        "Eccentricity": 0.0,
        "Inclination(deg)": 45.0,
        "Latitude(deg)": 42.400735856051575,
        "Longitude(deg)": -155.91897763060413,
        "Mean Anomaly(deg)": 108.01538472048364,
        "RAAN(deg)": 189.99083255517775,
        "Satellite Name": "Constellation 1 842",
        "Satellite Number": 842,
        "Semi-Major Axis(m)": 7083131.272910544,
        "Time(s)": 162
    },
    {
        "Altitude(m)": 706690.766856149,
        "Argument of Periapsis(deg)": 0.009771525018001118,
        "Eccentricity": 0.0,
        "Inclination(deg)": 45.0,
        "Latitude(deg)": 42.38270265981756,
        "Longitude(deg)": -155.8447450644149,
        "Mean Anomaly(deg)": 108.07608586073351,
        "RAAN(deg)": 189.9907759660122,
        "Satellite Name": "Constellation 1 842",
        "Satellite Number": 842,
        "Semi-Major Axis(m)": 7083131.272910544,
        "Time(s)": 163
    },
    {
        "Altitude(m)": 706686.779336071,
        "Argument of Periapsis(deg)": 0.00983147302424652,
        "Eccentricity": 0.0,
        "Inclination(deg)": 45.0,
        "Latitude(deg)": 42.364615925282116,
        "Longitude(deg)": -155.77055718977664,
        "Mean Anomaly(deg)": 108.13678700098343,
        "RAAN(deg)": 189.99071937684658,
        "Satellite Name": "Constellation 1 842",
        "Satellite Number": 842,
        "Semi-Major Axis(m)": 7083131.272910544,
        "Time(s)": 164
    },
    {
        "Altitude(m)": 706682.780859424,
        "Argument of Periapsis(deg)": 0.009891421030491928,
        "Eccentricity": 0.0,
        "Inclination(deg)": 45.0,
        "Latitude(deg)": 42.34647571638181,
        "Longitude(deg)": -155.69641425329795,
        "Mean Anomaly(deg)": 108.19748814123338,
        "RAAN(deg)": 189.99066278768103,
        "Satellite Name": "Constellation 1 842",
        "Satellite Number": 842,
        "Semi-Major Axis(m)": 7083131.272910544,
        "Time(s)": 165
    },
    {
        "Altitude(m)": 706678.771450058,
        "Argument of Periapsis(deg)": 0.009951369036737332,
        "Eccentricity": 0.0,
        "Inclination(deg)": 45.0,
        "Latitude(deg)": 42.32828209714737,
        "Longitude(deg)": -155.62231633293067,
        "Mean Anomaly(deg)": 108.25818928148321,
        "RAAN(deg)": 189.99060619851548,
        "Satellite Name": "Constellation 1 842",
        "Satellite Number": 842,
        "Semi-Major Axis(m)": 7083131.272910544,
        "Time(s)": 166
    },
    {
        "Altitude(m)": 706674.7511318811,
        "Argument of Periapsis(deg)": 0.010011317042982738,
        "Eccentricity": 0.0,
        "Inclination(deg)": 45.0,
        "Latitude(deg)": 42.310035131702925,
        "Longitude(deg)": -155.54826350606658,
        "Mean Anomaly(deg)": 108.31889042173313,
        "RAAN(deg)": 189.9905496093499,
        "Satellite Name": "Constellation 1 842",
        "Satellite Number": 842,
        "Semi-Major Axis(m)": 7083131.272910544,
        "Time(s)": 167
    },
    {
        "Altitude(m)": 706670.7199288667,
        "Argument of Periapsis(deg)": 0.010071265049228144,
        "Eccentricity": 0.0,
        "Inclination(deg)": 45.0,
        "Latitude(deg)": 42.29173488426532,
        "Longitude(deg)": -155.47425584953845,
        "Mean Anomaly(deg)": 108.37959156198306,
        "RAAN(deg)": 189.99049302018435,
        "Satellite Name": "Constellation 1 842",
        "Satellite Number": 842,
        "Semi-Major Axis(m)": 7083131.272910544,
        "Time(s)": 168
    },
    {
        "Altitude(m)": 706666.6778650718,
        "Argument of Periapsis(deg)": 0.01013121305547355,
        "Eccentricity": 0.0,
        "Inclination(deg)": 45.0,
        "Latitude(deg)": 42.27338141914308,
        "Longitude(deg)": -155.4002934396201,
        "Mean Anomaly(deg)": 108.44029270223295,
        "RAAN(deg)": 189.9904364310188,
        "Satellite Name": "Constellation 1 842",
        "Satellite Number": 842,
        "Semi-Major Axis(m)": 7083131.272910544,
        "Time(s)": 169
    },
    {
        "Altitude(m)": 706662.6249646018,
        "Argument of Periapsis(deg)": 0.010191161061718957,
        "Eccentricity": 0.0,
        "Inclination(deg)": 45.0,
        "Latitude(deg)": 42.254974800735646,
        "Longitude(deg)": -155.326376352027,
        "Mean Anomaly(deg)": 108.5009938424828,
        "RAAN(deg)": 189.99037984185318,
        "Satellite Name": "Constellation 1 842",
        "Satellite Number": 842,
        "Semi-Major Axis(m)": 7083131.272910544,
        "Time(s)": 170
    }
]